CALSPHERE 1             
1 00900U 64063C   15355.51552347  .00000506  00000-0  54128-3 0  9993
2 00900  90.1384   3.3729 0025213 308.6233  51.2674 13.72605159545422
CALSPHERE 2             
1 00902U 64063E   15353.55356351  .00000051  00000-0  62754-4 0  9994
2 00902  90.1423   5.6687 0017857 186.3262 293.1557 13.52624619338588
LCS 1                   
1 01361U 65034C   15353.92077762  .00000011  00000-0  30399-3 0  9995
2 01361  32.1422 276.0748 0007998 264.9856  94.9729  9.89288913830361
TEMPSAT 1               
1 01512U 65065E   15354.23840416  .00000029  00000-0  39040-4 0  9998
2 01512  89.8068 252.2067 0068874 206.8603 272.2606 13.33385051449376
CALSPHERE 4(A)          
1 01520U 65065H   15355.23437854  .00000081  00000-0  13867-3 0  9992
2 01520  90.1049 117.7463 0070605 106.3477 300.6006 13.35681756451648
OPS 5712 (P/L 160)      
1 02826U 67053A   15354.85412961  .00001818  00000-0  51709-3 0  9996
2 02826  69.9310  72.7735 0001830  38.2930 321.8331 14.46890127509913
OPS 5712 (P/L 153)      
1 02874U 67053H   15354.55067262 -.00000000  00000-0  38347-4 0  9993
2 02874  69.9743  42.7750 0005316 149.9028   0.1337 13.96247051472346
SURCAL 150B             
1 02909U 67053J   15355.50192596  .00005280  00000-0  11437-2 0  9990
2 02909  69.9489 167.6968 0005362 223.4151 136.6565 14.58697351517929
RIGIDSPHERE 2 (LCS 4)   
1 05398U 71067E   15354.89431446  .00000494  00000-0  16973-3 0  9999
2 05398  87.6220 316.3053 0061527 280.3889  79.0376 14.33337875324816
